CUBEBUG-2 (LO-74)
1 39440U 13066AA  26176.83815360  .00004524  00000-0  41819-3 0  9993
2 39440  97.8903 125.8528 0057564   0.5259 359.6011 14.93829236678280
FUNCUBE-1 (AO-73)
1 39444U 13066AE  26177.20421799  .00008222  00000-0  50781-3 0  9995
2 39444  97.8271 148.8384 0036563 170.3279 189.8662 15.09588977681024
UWE-3
1 39446U 13066AG  26176.83787144  .00004431  00000-0  38106-3 0  9999
2 39446  97.8708 132.9703 0046808 291.8607  67.7640 14.97092153678878
UNISAT-6
1 40012U 14033C   26177.14258198  .00002527  00000-0  27418-3 0  9990
2 40012  97.7883 329.6973 0045756  40.5030 319.9578 14.88286575647495
DUCHIFAT-1
1 40021U 14033M   26176.71541039  .00141113  00000-0  13462-2 0  9999
2 40021  98.0450 237.0839 0001518 101.6443 258.4986 15.66313669657085
FUNCUBE-3 (EO-79)
1 40025U 14033R   26176.98118250  .00009982  00000-0  48855-3 0  9999
2 40025  98.0964 188.7440 0008708 184.1181 175.9981 15.18384896654365
LILACSAT-2
1 40908U 15049K   26177.17228442  .00018690  00000-0  31483-3 0  9999
2 40908  97.4639 214.3561 0006357 205.1746 154.9197 15.51729514597141
CAS-2T & KS-1Q
1 41847U 16066G   26177.17512640  .00001615  00000-0  23266-3 0  9997
2 41847  98.3821 252.8088 0342903 102.3025 261.6774 14.44722034506098
FOX-1B (AO-91)
1 43017U 17073E   26176.60840683  .00008156  00000-0  35687-3 0  9992
2 43017  97.4699  43.6511 0148630 299.9037  58.7499 15.12826697466669
FOX-1A (AO-85)
1 40967U 15058D   26176.60265426  .00002302  00000-0  21247-3 0  9994
2 40967  64.7749 252.8304 0130949  53.3196 307.9866 14.91002790114820
DIWATA-2B (PO-101)
1 43678U 18084H   26177.17262178  .00002255  00000-0  18400-3 0  9996
2 43678  98.1205  13.7726 0013017 141.9692 218.2452 15.00488746417565
ESHAIL-2
1 43700U 18090A   26176.67268748  .00000155  00000-0  00000+0 0  9992
2 43700   0.0185 341.0996 0002207 148.5722  52.1049  1.00274106 27766
ITASAT-1
1 43786U 18099AE  26177.11177140  .00007445  00000-0  35672-3 0  9996
2 43786  97.4028 228.4453 0011232 327.0677  32.9856 15.19159970414266
FOX-1CLIFF (AO-95)
1 43770U 18099N   26176.66330514  .00013967  00000-0  53097-3 0  9991
2 43770  97.4386 236.8787 0007199 324.2566  35.8190 15.26877140414517
JY1SAT (JO-97)
1 43803U 18099AX  26177.09898852  .00019688  00000-0  60135-3 0  9997
2 43803  97.4134 239.9649 0005005 222.4437 137.6419 15.33922323414995
UWE-4
1 43880U 18111E   26176.75685352  .00040469  00000-0  81038-3 0  9994
2 43880  97.5842 105.5453 0004388 298.2824  61.7982 15.46632165412101
CAS-6 (TO-108)
1 44881U 19093C   26177.19922822  .00000319  00000-0  41958-4 0  9999
2 44881  97.7532 249.2118 0014945  59.9834 300.2862 14.86530159352753
DOSAAF-85 (RS-44)
1 44909U 19096E   26176.91785179  .00000020  00000-0  29842-4 0  9991
2 44909  82.5225 333.9025 0218451 123.8343 238.3763 12.79748985303460
SALSAT (TUBSAT 22)
1 46495U 20068K   26176.97551410  .00008659  00000-0  30155-3 0  9993
2 46495  97.8851 180.5757 0007809 270.5499  89.4845 15.29916367316705
CAMSAT XW-3 (CAS-9)
1 50466U 21131B   26177.14850271  .00000559  00000-0  18632-3 0  9992
2 50466  98.4981 269.4898 0005363  75.6723 284.5061 14.41365221236405
ROBUSTA 1F (MTCUBE-2)
1 53109U 22080E   26176.74430124 -.00000003  00000-0  00000+0 0  9990
2 53109  70.1444 295.2691 0008975 287.7502  72.2178  6.42583224 92615
UMKA-1 (RS40S)
1 57172U 23091G   26177.17351538  .00007544  00000-0  34324-3 0  9992
2 57172  97.5052 235.8361 0014297  89.9468 270.3405 15.20916405165373
CUBESX-HSE-3 (RS42S)
1 57178U 23091N   26177.19151979  .00015956  00000-0  52668-3 0  9994
2 57178  97.5094 242.8928 0011583  66.5819 293.6639 15.31431857165808
MONITOR-3 (RS58S)
1 57180U 23091Q   26177.17049632  .00011923  00000-0  43781-3 0  9993
2 57180  97.5087 240.6826 0012803  73.0465 287.2176 15.28014174165666
MONITOR-4 (RS57S)
1 57182U 23091S   26177.14905345  .00011538  00000-0  42269-3 0  9996
2 57182  97.5080 240.6328 0012794  73.3306 286.9337 15.28098226165669
MONITOR-2 (RS39S)
1 57184U 23091U   26177.14021722  .00005312  00000-0  25671-3 0  9997
2 57184  97.5074 235.3652 0012749  84.0631 276.2056 15.18988558165312
SVYATOBOR-1 (RS60S)
1 57187U 23091X   26177.16991020  .00010250  00000-0  39169-3 0  9993
2 57187  97.5093 241.0367 0010572  67.3905 292.8450 15.26760677165684
VIZARD-METEO (RS38S)
1 57189U 23091Z   26177.00666080  .00019402  00000-0  54951-3 0  9997
2 57189  97.5095 246.6695 0007628  50.4472 309.7445 15.36290982166044
UTMN-2 (RS27S)
1 57203U 23091AP  26177.13889980  .00015362  00000-0  49476-3 0  9991
2 57203  97.5090 244.4845 0008688  56.7092 303.4981 15.32259314165914
POLYTECH UNIVERSE-3 (RS46S)
1 57191U 23091AB  26177.16622475  .00006208  00000-0  29716-3 0  9998
2 57191  97.5049 234.8953 0017080  98.4356 261.8815 15.19194617165315
